[{"OBJECT_NAME":"STARLINK-5526","OBJECT_ID":"2023-064BA","EPOCH":"2026-03-09T11:31:27.690240","MEAN_MOTION":14.98328014,"ECCENTRICITY":0.00030473,"INCLINATION":69.9993,"RA_OF_ASC_NODE":104.8865,"ARG_OF_PERICENTER":264.999,"MEAN_ANOMALY":95.0821,"EPHEMERIS_TYPE":0,"CLASSIFICATION_TYPE":"U","NORAD_CAT_ID":56496,"ELEMENT_SET_NO":999,"REV_AT_EPOCH":15620,"BSTAR":-3.1848949e-5,"MEAN_MOTION_DOT":-4.73e-6,"MEAN_MOTION_DDOT":0},{"OBJECT_NAME":"ION SCV-022","OBJECT_ID":"2025-276S","EPOCH":"2026-03-09T17:53:05.489952","MEAN_MOTION":14.97347265,"ECCENTRICITY":0.00045393,"INCLINATION":97.5376,"RA_OF_ASC_NODE":142.978,"ARG_OF_PERICENTER":154.7099,"MEAN_ANOMALY":205.4346,"EPHEMERIS_TYPE":0,"CLASSIFICATION_TYPE":"U","NORAD_CAT_ID":66682,"ELEMENT_SET_NO":999,"REV_AT_EPOCH":1519,"BSTAR":0.00017276803,"MEAN_MOTION_DOT":1.95e-5,"MEAN_MOTION_DDOT":0}]
